{
    "OBJECT_NAME": "ISS (ZARYA)",
    "OBJECT_ID": "1998-067A",
    "EPOCH": "2020-10-25T14:41:08.999808",
    "MEAN_MOTION": 15.49332687,
    "ECCENTRICITY": 0.0001681,
    "INCLINATION": 51.645,
    "RA_OF_ASC_NODE": 63.118,
    "ARG_OF_PERICENTER": 60.4858,
    "MEAN_ANOMALY": 113.5765,
    "EPHEMERIS_TYPE": 0,
    "CLASSIFICATION_TYPE": "U",
    "NORAD_CAT_ID": 25544,
    "ELEMENT_SET_NO": 999,
    "REV_AT_EPOCH": 25223,
    "BSTAR": 0.00003223,
    "MEAN_MOTION_DOT": 0.00001346,
    "MEAN_MOTION_DDOT": 0
  }
