ISS (ZARYA)             
1 25544U 98067A   20299.61190972  .00001346  00000-0  32230-4 0  9995
2 25544  51.6450  63.1180 0001681  60.4858 113.5765 15.49332687252239
